start=new Date('2023-05-15T00:00:00.000Z').valueOf();
sats=[{"GP_ID":"231820627","CLASSIFICATION_TYPE":"U","RCS_SIZE":"LARGE","OBJECT_NAME":"STARLINK-3986","ECCENTRICITY":"0.00010990","OBJECT_ID":"2022-052AB","OBJECT_TYPE":"PAYLOAD","MEAN_MOTION":"15.08836820","TLE_LINE1":"1 52623U 22052AB  23134.43225524  .00000011  00000-0  18801-4 0  9993","PERIAPSIS":"538.995","MEAN_MOTION_DOT":"0.00000011","NORAD_CAT_ID":"52623","SEMIMAJOR_AXIS":"6917.890","BSTAR":"0.00001880100000","ELEMENT_SET_NO":"999","EPHEMERIS_TYPE":"0","COUNTRY_CODE":"US","ARG_OF_PERICENTER":"86.3896","SITE":"AFETR","TIME_SYSTEM":"UTC","LAUNCH_DATE":"2022-05-14","EPOCH":"2023-05-14T10:22:26.852736","PERIOD":"95.438","REV_AT_EPOCH":"5545","MEAN_MOTION_DDOT":"0.0000000000000","APOAPSIS":"540.515","DECAY_DATE":null,"CENTER_NAME":"EARTH","MEAN_ELEMENT_THEORY":"SGP4","INCLINATION":"53.2162","RA_OF_ASC_NODE":"214.1226","REF_FRAME":"TEME","MEAN_ANOMALY":"273.7221","FILE":"3907744","TLE_LINE2":"2 52623  53.2162 214.1226 0001099  86.3896 273.7221 15.08836820 55450"},{"MEAN_ELEMENT_THEORY":"SGP4","RA_OF_ASC_NODE":"213.7733","INCLINATION":"53.2169","REF_FRAME":"TEME","MEAN_ANOMALY":"270.9630","TLE_LINE2":"2 52624  53.2169 213.7733 0001312  89.1512 270.9630 15.08832905 55846","FILE":"3907538","REV_AT_EPOCH":"5584","APOAPSIS":"540.675","MEAN_MOTION_DDOT":"0.0000000000000","CENTER_NAME":"EARTH","DECAY_DATE":null,"ARG_OF_PERICENTER":"89.1512","LAUNCH_DATE":"2022-05-14","TIME_SYSTEM":"UTC","SITE":"AFETR","EPOCH":"2023-05-14T12:09:48.308832","PERIOD":"95.438","EPHEMERIS_TYPE":"0","COUNTRY_CODE":"US","BSTAR":"-0.00000081619000","ELEMENT_SET_NO":"999","MEAN_MOTION":"15.08832905","PERIAPSIS":"538.859","TLE_LINE1":"1 52624U 22052AC  23134.50680913 -.00000301  00000-0 -81619-6 0  9992","MEAN_MOTION_DOT":"-0.00000301","SEMIMAJOR_AXIS":"6917.902","NORAD_CAT_ID":"52624","RCS_SIZE":"LARGE","GP_ID":"231792382","CLASSIFICATION_TYPE":"U","OBJECT_NAME":"STARLINK-4009","OBJECT_ID":"2022-052AC","ECCENTRICITY":"0.00013120","OBJECT_TYPE":"PAYLOAD"},{"REV_AT_EPOCH":"5584","APOAPSIS":"540.593","MEAN_MOTION_DDOT":"0.0000000000000","CENTER_NAME":"EARTH","DECAY_DATE":null,"MEAN_ELEMENT_THEORY":"SGP4","RA_OF_ASC_NODE":"213.8388","INCLINATION":"53.2168","REF_FRAME":"TEME","MEAN_ANOMALY":"247.1270","TLE_LINE2":"2 52625  53.2168 213.8388 0001152 112.9843 247.1270 15.08823445 55842","FILE":"3907539","ARG_OF_PERICENTER":"112.9843","TIME_SYSTEM":"UTC","LAUNCH_DATE":"2022-05-14","SITE":"AFETR","EPOCH":"2023-05-14T11:52:32.924064","PERIOD":"95.439","BSTAR":"-0.00012725000000","ELEMENT_SET_NO":"999","EPHEMERIS_TYPE":"0","COUNTRY_CODE":"US","RCS_SIZE":"LARGE","GP_ID":"231792624","CLASSIFICATION_TYPE":"U","OBJECT_NAME":"STARLINK-3988","OBJECT_ID":"2022-052AD","ECCENTRICITY":"0.00011520","OBJECT_TYPE":"PAYLOAD","MEAN_MOTION":"15.08823445","PERIAPSIS":"538.999","TLE_LINE1":"1 52625U 22052AD  23134.49482551 -.00002311  00000-0 -12725-3 0  9991","MEAN_MOTION_DOT":"-0.00002311","SEMIMAJOR_AXIS":"6917.931","NORAD_CAT_ID":"52625"},{"OBJECT_TYPE":"PAYLOAD","ECCENTRICITY":"0.00008480","OBJECT_ID":"2022-052AE","OBJECT_NAME":"STARLINK-3990","GP_ID":"231853737","CLASSIFICATION_TYPE":"U","RCS_SIZE":"LARGE","NORAD_CAT_ID":"52626","SEMIMAJOR_AXIS":"6917.881","MEAN_MOTION_DOT":"0.00001258","TLE_LINE1":"1 52626U 22052AE  23134.57208933  .00001258  00000-0  97073-4 0  9998","PERIAPSIS":"539.159","MEAN_MOTION":"15.08839959","ELEMENT_SET_NO":"999","BSTAR":"0.00009707300000","COUNTRY_CODE":"US","EPHEMERIS_TYPE":"0","PERIOD":"95.438","EPOCH":"2023-05-14T13:43:48.518112","SITE":"AFETR","TIME_SYSTEM":"UTC","LAUNCH_DATE":"2022-05-14","ARG_OF_PERICENTER":"104.6690","DECAY_DATE":null,"CENTER_NAME":"EARTH","MEAN_MOTION_DDOT":"0.0000000000000","APOAPSIS":"540.332","REV_AT_EPOCH":"5547","TLE_LINE2":"2 52626  53.2163 213.4917 0000848 104.6690 255.4396 15.08839959 55478","FILE":"3908005","REF_FRAME":"TEME","MEAN_ANOMALY":"255.4396","INCLINATION":"53.2163","RA_OF_ASC_NODE":"213.4917","MEAN_ELEMENT_THEORY":"SGP4"},{"ARG_OF_PERICENTER":"79.8523","SITE":"AFETR","TIME_SYSTEM":"UTC","LAUNCH_DATE":"2022-05-14","EPOCH":"2023-05-14T14:47:23.944704","PERIOD":"95.437","REV_AT_EPOCH":"5549","MEAN_MOTION_DDOT":"0.0000000000000","APOAPSIS":"540.558","DECAY_DATE":null,"CENTER_NAME":"EARTH","MEAN_ELEMENT_THEORY":"SGP4","INCLINATION":"53.2154","RA_OF_ASC_NODE":"213.2988","MEAN_ANOMALY":"280.2603","REF_FRAME":"TEME","TLE_LINE2":"2 52627  53.2154 213.2988 0001187  79.8523 280.2603 15.08842766 55499","FILE":"3908005","GP_ID":"231854988","CLASSIFICATION_TYPE":"U","RCS_SIZE":"LARGE","OBJECT_NAME":"STARLINK-3992","ECCENTRICITY":"0.00011870","OBJECT_ID":"2022-052AF","OBJECT_TYPE":"PAYLOAD","MEAN_MOTION":"15.08842766","TLE_LINE1":"1 52627U 22052AF  23134.61624936  .00000400  00000-0  43197-4 0  9995","PERIAPSIS":"538.916","MEAN_MOTION_DOT":"0.00000400","NORAD_CAT_ID":"52627","SEMIMAJOR_AXIS":"6917.872","BSTAR":"0.00004319700000","ELEMENT_SET_NO":"999","EPHEMERIS_TYPE":"0","COUNTRY_CODE":"US"},{"TIME_SYSTEM":"UTC","LAUNCH_DATE":"2022-05-14","SITE":"AFETR","ARG_OF_PERICENTER":"89.3347","PERIOD":"95.438","EPOCH":"2023-05-14T15:56:57.371424","REV_AT_EPOCH":"5528","CENTER_NAME":"EARTH","DECAY_DATE":null,"APOAPSIS":"540.236","MEAN_MOTION_DDOT":"0.0000000000000","RA_OF_ASC_NODE":"228.0785","INCLINATION":"53.2172","MEAN_ELEMENT_THEORY":"SGP4","TLE_LINE2":"2 52628  53.2172 228.0785 0000706  89.3347 270.7726 15.08839302 55284","FILE":"3908005","REF_FRAME":"TEME","MEAN_ANOMALY":"270.7726","OBJECT_NAME":"STARLINK-4001","RCS_SIZE":"LARGE","GP_ID":"231854738","CLASSIFICATION_TYPE":"U","OBJECT_TYPE":"PAYLOAD","OBJECT_ID":"2022-052AG","ECCENTRICITY":"0.00007060","PERIAPSIS":"539.259","TLE_LINE1":"1 52628U 22052AG  23134.66455291 -.00000710  00000-0 -26569-4 0  9997","MEAN_MOTION":"15.08839302","SEMIMAJOR_AXIS":"6917.883","NORAD_CAT_ID":"52628","MEAN_MOTION_DOT":"-0.00000710","BSTAR":"-0.00002656900000","ELEMENT_SET_NO":"999","COUNTRY_CODE":"US","EPHEMERIS_TYPE":"0"},{"REV_AT_EPOCH":"5548","APOAPSIS":"540.466","MEAN_MOTION_DDOT":"0.0000000000000","CENTER_NAME":"EARTH","DECAY_DATE":null,"MEAN_ELEMENT_THEORY":"SGP4","RA_OF_ASC_NODE":"213.3207","INCLINATION":"53.2166","REF_FRAME":"TEME","MEAN_ANOMALY":"263.7085","TLE_LINE2":"2 52629  53.2166 213.3207 0001044  96.4027 263.7085 15.08840639 55481","FILE":"3908005","ARG_OF_PERICENTER":"96.4027","TIME_SYSTEM":"UTC","LAUNCH_DATE":"2022-05-14","SITE":"AFETR","EPOCH":"2023-05-14T14:43:28.996320","PERIOD":"95.438","BSTAR":"0.00008564400000","ELEMENT_SET_NO":"999","EPHEMERIS_TYPE":"0","COUNTRY_CODE":"US","RCS_SIZE":"LARGE","GP_ID":"231853487","CLASSIFICATION_TYPE":"U","OBJECT_NAME":"STARLINK-4022","OBJECT_ID":"2022-052AH","ECCENTRICITY":"0.00010440","OBJECT_TYPE":"PAYLOAD","MEAN_MOTION":"15.08840639","PERIAPSIS":"539.021","TLE_LINE1":"1 52629U 22052AH  23134.61353005  .00001076  00000-0  85644-4 0  9996","MEAN_MOTION_DOT":"0.00001076","SEMIMAJOR_AXIS":"6917.878","NORAD_CAT_ID":"52629"},{"EPOCH":"2023-05-14T11:47:13.981920","PERIOD":"95.438","ARG_OF_PERICENTER":"83.9746","TIME_SYSTEM":"UTC","LAUNCH_DATE":"2022-05-14","SITE":"AFETR","REF_FRAME":"TEME","MEAN_ANOMALY":"276.1347","FILE":"3907775","TLE_LINE2":"2 52630  53.2149 213.8599 0000889  83.9746 276.1347 15.08838270 55845","MEAN_ELEMENT_THEORY":"SGP4","RA_OF_ASC_NODE":"213.8599","INCLINATION":"53.2149","APOAPSIS":"540.366","MEAN_MOTION_DDOT":"0.0000000000000","CENTER_NAME":"EARTH","DECAY_DATE":null,"REV_AT_EPOCH":"5584","MEAN_MOTION_DOT":"0.00001712","SEMIMAJOR_AXIS":"6917.886","NORAD_CAT_ID":"52630","MEAN_MOTION":"15.08838270","PERIAPSIS":"539.136","TLE_LINE1":"1 52630U 22052AJ  23134.49113405  .00001712  00000-0  12560-3 0  9995","OBJECT_ID":"2022-052AJ","ECCENTRICITY":"0.00008890","OBJECT_TYPE":"PAYLOAD","RCS_SIZE":"LARGE","GP_ID":"231825019","CLASSIFICATION_TYPE":"U","OBJECT_NAME":"STARLINK-3989","EPHEMERIS_TYPE":"0","COUNTRY_CODE":"US","ELEMENT_SET_NO":"999","BSTAR":"0.00012560000000"},{"TIME_SYSTEM":"UTC","LAUNCH_DATE":"2022-05-14","SITE":"AFETR","ARG_OF_PERICENTER":"99.2954","PERIOD":"95.438","EPOCH":"2023-05-14T14:36:48.540960","RA_OF_ASC_NODE":"213.3275","INCLINATION":"53.2177","MEAN_ELEMENT_THEORY":"SGP4","TLE_LINE2":"2 52631  53.2177 213.3275 0001137  99.2954 260.8167 15.08838541 55493","FILE":"3908005","MEAN_ANOMALY":"260.8167","REF_FRAME":"TEME","REV_AT_EPOCH":"5549","CENTER_NAME":"EARTH","DECAY_DATE":null,"APOAPSIS":"540.536","MEAN_MOTION_DDOT":"0.0000000000000","PERIAPSIS":"538.963","TLE_LINE1":"1 52631U 22052AK  23134.60889515  .00000193  00000-0  30187-4 0  9999","MEAN_MOTION":"15.08838541","SEMIMAJOR_AXIS":"6917.885","NORAD_CAT_ID":"52631","MEAN_MOTION_DOT":"0.00000193","OBJECT_NAME":"STARLINK-3794","RCS_SIZE":"LARGE","GP_ID":"231854488","CLASSIFICATION_TYPE":"U","OBJECT_TYPE":"PAYLOAD","OBJECT_ID":"2022-052AK","ECCENTRICITY":"0.00011370","COUNTRY_CODE":"US","EPHEMERIS_TYPE":"0","BSTAR":"0.00003018700000","ELEMENT_SET_NO":"999"},{"DECAY_DATE":null,"CENTER_NAME":"EARTH","MEAN_MOTION_DDOT":"0.0000000000000","APOAPSIS":"540.467","REV_AT_EPOCH":"5549","FILE":"3908005","TLE_LINE2":"2 52632  53.2151 213.2773 0001040 140.7319 219.3749 15.08839347 55498","MEAN_ANOMALY":"219.3749","REF_FRAME":"TEME","INCLINATION":"53.2151","RA_OF_ASC_NODE":"213.2773","MEAN_ELEMENT_THEORY":"SGP4","PERIOD":"95.438","EPOCH":"2023-05-14T14:52:41.868192","SITE":"AFETR","TIME_SYSTEM":"UTC","LAUNCH_DATE":"2022-05-14","ARG_OF_PERICENTER":"140.7319","ELEMENT_SET_NO":"999","BSTAR":"-0.00002090300000","COUNTRY_CODE":"US","EPHEMERIS_TYPE":"0","OBJECT_TYPE":"PAYLOAD","ECCENTRICITY":"0.00010400","OBJECT_ID":"2022-052AL","OBJECT_NAME":"STARLINK-3995","GP_ID":"231855239","CLASSIFICATION_TYPE":"U","RCS_SIZE":"LARGE","NORAD_CAT_ID":"52632","SEMIMAJOR_AXIS":"6917.882","MEAN_MOTION_DOT":"-0.00000620","TLE_LINE1":"1 52632U 22052AL  23134.61992903 -.00000620  00000-0 -20903-4 0  9999","PERIAPSIS":"539.028","MEAN_MOTION":"15.08839347"}];
